[{"OBJECT_NAME":"EYESAT A (AO-27)","OBJECT_ID":"1993-061C","EPOCH":"2026-03-09T16:58:07.157856","MEAN_MOTION":14.30913089,"ECCENTRICITY":0.00089503,"INCLINATION":98.6982,"RA_OF_ASC_NODE":136.1171,"ARG_OF_PERICENTER":38.8989,"MEAN_ANOMALY":321.2837,"EPHEMERIS_TYPE":0,"CLASSIFICATION_TYPE":"U","NORAD_CAT_ID":22825,"ELEMENT_SET_NO":999,"REV_AT_EPOCH":69277,"BSTAR":7.1797441e-5,"MEAN_MOTION_DOT":1.44e-6,"MEAN_MOTION_DDOT":0},{"OBJECT_NAME":"THORAD AGENA D DEB","OBJECT_ID":"1969-082GN","EPOCH":"2026-03-09T19:03:10.100160","MEAN_MOTION":14.35044006,"ECCENTRICITY":0.00342328,"INCLINATION":69.9872,"RA_OF_ASC_NODE":59.5463,"ARG_OF_PERICENTER":336.6861,"MEAN_ANOMALY":23.2711,"EPHEMERIS_TYPE":0,"CLASSIFICATION_TYPE":"U","NORAD_CAT_ID":4547,"ELEMENT_SET_NO":999,"REV_AT_EPOCH":91775,"BSTAR":0.00062557124,"MEAN_MOTION_DOT":1.738e-5,"MEAN_MOTION_DDOT":0}]
